{"type":"FeatureCollection", "features": [
{"type":"Feature","geometry":{"type":"Polygon","coordinates":[[[-0.462072580673154,51.44589582297273],[-0.466080872137556,51.4443746877226],[-0.468935028218563,51.44508641536559],[-0.468133133932029,51.447548812159],[-0.476141870713597,51.44473069658723],[-0.476943282751284,51.44226823989064],[-0.484194263499233,51.44056376357266],[-0.480628490725389,51.439618380054284],[-0.482845366115177,51.43784863818976],[-0.482934695040184,51.43515211592247],[-0.486214920906859,51.43384567951153],[-0.484491736843498,51.43157534931067],[-0.487771660858411,51.43026886607937],[-0.480716230937948,51.42613111494595],[-0.475332024433333,51.42583640134239],[-0.472044578296204,51.427367246505405],[-0.464061259022362,51.429510988082086],[-0.458699461572931,51.42854138322139],[-0.458752383481122,51.42696842726252],[-0.45554007096519,51.426251725040515],[-0.45602068125384,51.4226611350849],[-0.449528414844396,51.423249863533194],[-0.443976138452464,51.41733128261489],[-0.444090573969867,51.41396067908338],[-0.447117599745638,51.40950465764177],[-0.443532130999403,51.40923228963927],[-0.439036797736346,51.41456790823139],[-0.43471694656089,51.41473510660456],[-0.434609494388609,51.41788098884649],[-0.432751145834136,51.41965462229792],[-0.429485856677653,51.420510150727964],[-0.427604068310376,51.4229578141669],[-0.427121229355697,51.42654826823099],[-0.427770703763461,51.428580254377486],[-0.431357580242534,51.42885311588862],[-0.439931063960563,51.43054118424052],[-0.439793289941202,51.43458588871239],[-0.44119307301009,51.43572854788533],[-0.449783430198015,51.43696649533019],[-0.451175936531545,51.43833374423748],[-0.457655190106009,51.43819435869639],[-0.46453162164471,51.43693578322834],[-0.465429483881987,51.4423429032404],[-0.461841326960535,51.44207107458869],[-0.462072580673154,51.44589582297273]]]},"properties":{"gsscode":"E63012197","name1_text":"Ashford (Spelthorne)","name1_language":null}}
]}